SMDC ONE 2.4            
1 39469U 13072H   26068.55980652  .00015821  00000+0  65974-3 0  9996
2 39469 120.4883 328.0945 0137633 267.6479  90.8828 15.15767863102719
STARLINK-34854          
1 65337U 25189Q   26068.65690868  .00030196  00000+0  10272-2 0  9991
2 65337  53.1582 206.7591 0001229  92.5483 267.5658 15.30209757 31041
